[{"OBJECT_NAME":"STARLINK-34043","OBJECT_ID":"2025-092V","EPOCH":"2026-03-09T07:32:18.887136","MEAN_MOTION":15.27600198,"ECCENTRICITY":0.00024654,"INCLINATION":42.9973,"RA_OF_ASC_NODE":170.6146,"ARG_OF_PERICENTER":292.0007,"MEAN_ANOMALY":68.0583,"EPHEMERIS_TYPE":0,"CLASSIFICATION_TYPE":"U","NORAD_CAT_ID":63823,"ELEMENT_SET_NO":999,"REV_AT_EPOCH":4860,"BSTAR":0.0013039618,"MEAN_MOTION_DOT":0.00035818,"MEAN_MOTION_DDOT":0},{"OBJECT_NAME":"CZ-6A DEB","OBJECT_ID":"2022-151NB","EPOCH":"2026-03-09T18:26:17.609568","MEAN_MOTION":15.22372787,"ECCENTRICITY":0.00267955,"INCLINATION":98.6489,"RA_OF_ASC_NODE":154.0342,"ARG_OF_PERICENTER":180.4296,"MEAN_ANOMALY":179.6918,"EPHEMERIS_TYPE":0,"CLASSIFICATION_TYPE":"U","NORAD_CAT_ID":54601,"ELEMENT_SET_NO":999,"REV_AT_EPOCH":17694,"BSTAR":0.011449911,"MEAN_MOTION_DOT":0.00276508,"MEAN_MOTION_DDOT":0}]
